ORBCOMM FM103 [+]       
1 40091U 14040F   24067.97308437  .00001234  00000+0  31301-3 0  9993
2 40091  47.0063  56.4417 0002790 296.1913  63.8685 14.56356346513167
ORBCOMM FM114 [+]       
1 41179U 15081A   24067.45848409  .00001559  00000+0  38553-3 0  9994
2 41179  47.0039 328.1732 0001738 350.8985   9.1868 14.56359662436394
ORBCOMM FM119 [-]       
1 41180U 15081B   24067.56467582  .00001199  00000+0  30516-3 0  9998
2 41180  46.9991 236.8592 0000742  77.1203 282.9764 14.56346560437666
ORBCOMM FM105 [-]       
1 41181U 15081C   24067.62502732  .00000604  00000+0  21948-3 0  9992
2 41181  47.0004 197.6739 0001328  10.1876 349.9031 14.44261463433285
ORBCOMM FM110 [+]       
1 41182U 15081D   24067.43548846  .00001599  00000+0  39453-3 0  9992
2 41182  47.0026 327.6939 0001719 203.1498 156.9310 14.56356079436263
ORBCOMM FM118 [+]       
1 41183U 15081E   24067.41272019  .00001422  00000+0  35506-3 0  9997
2 41183  47.0046 328.0928 0001849 197.0925 162.9897 14.56358675436440
ORBCOMM FM112 [+]       
1 41184U 15081F   24067.19961698  .00001432  00000+0  35743-3 0  9995
2 41184  46.9975 237.8124 0000480  35.2328 324.8588 14.56339572437605
ORBCOMM FM113 [+]       
1 41185U 15081G   24067.51969259  .00001597  00000+0  39413-3 0  9993
2 41185  46.9993 236.5597 0000270 112.5892 247.5021 14.56340263437655
